TRANSPORTER-10 OBJECT AG
1 59128U 24043AG  26068.92552531  .00009498  00000+0  32170-3 0  9997
2 59128  97.5471 205.7101 0009300 226.5958 133.4509 15.30759727111920
STARLINK-34115          
1 63972U 25099W   26068.33295859  .00028011  00000+0  10236-2 0  9993
2 63972  43.0002 174.6067 0001780 253.7711 106.2945 15.27578809 47326
